[{"OBJECT_NAME":"STARLINK-2222","OBJECT_ID":"2021-041V","EPOCH":"2026-03-09T11:45:16.353504","MEAN_MOTION":15.06409495,"ECCENTRICITY":0.00018787,"INCLINATION":53.0557,"RA_OF_ASC_NODE":142.5171,"ARG_OF_PERICENTER":98.5623,"MEAN_ANOMALY":261.5579,"EPHEMERIS_TYPE":0,"CLASSIFICATION_TYPE":"U","NORAD_CAT_ID":48572,"ELEMENT_SET_NO":999,"REV_AT_EPOCH":26503,"BSTAR":0.00016147723,"MEAN_MOTION_DOT":2.125e-5,"MEAN_MOTION_DDOT":0},{"OBJECT_NAME":"FENGYUN 1C DEB","OBJECT_ID":"1999-025BQF","EPOCH":"2026-03-08T19:58:36.101856","MEAN_MOTION":15.15826086,"ECCENTRICITY":0.00798835,"INCLINATION":98.9812,"RA_OF_ASC_NODE":89.4872,"ARG_OF_PERICENTER":83.7388,"MEAN_ANOMALY":277.2932,"EPHEMERIS_TYPE":0,"CLASSIFICATION_TYPE":"U","NORAD_CAT_ID":31327,"ELEMENT_SET_NO":999,"REV_AT_EPOCH":1401,"BSTAR":0.0018254058,"MEAN_MOTION_DOT":0.00037915,"MEAN_MOTION_DDOT":0}]
